NORAD_CAT_ID,OBJECT_NAME,OBJECT_TYPE,EPOCH,MEAN_MOTION,ECCENTRICITY,INCLINATION,RA_OF_ASC_NODE,ARG_OF_PERICENTER,MEAN_ANOMALY,BSTAR,MEAN_MOTION_DOT,MEAN_MOTION_DDOT,TLE_LINE0,TLE_LINE1,TLE_LINE2,SEMIMAJOR_AXIS,PERIOD,APOGEE,PERIGEE,DECAYED
53910.0,STARLINK-5056,PAYLOAD,2023-08-12 09:50:00,15.08836607,0.0001158,53.2156,215.2606,78.3628,281.7494,0.00015141,2.122e-05,0.0,0 STARLINK-5056,1 53910U 22119AA  23224.40973239  .00002122  00000-0  15141-3 0  9995,2 53910  53.2156 215.2606 0001158  78.3628 281.7494 15.08836607 49454,6917.891,95.438,540.557,538.955,0.0
53910.0,STARLINK-5056,PAYLOAD,2023-08-13 16:02:20,15.08834985,0.0001252,53.2147,209.6102,76.883,283.2302,7.9491e-05,9.77e-06,0.0,0 STARLINK-5056,1 53910U 22119AA  23225.66829861  .00000977  00000-0  79491-4 0  9990,2 53910  53.2147 209.6102 0001252  76.8830 283.2302 15.08834985 49648,6917.896,95.438,540.627,538.895,0.0
53910.0,STARLINK-5056,PAYLOAD,2023-08-14 22:14:40,15.08840464,0.0001265,53.2167,203.9602,84.1722,275.9415,0.00011579,1.555e-05,0.0,0 STARLINK-5056,1 53910U 22119AA  23226.92686076  .00001555  00000-0  11579-3 0  9994,2 53910  53.2167 203.9602 0001265  84.1722 275.9415 15.08840464 49831,6917.879,95.438,540.619,538.869,0.0
53910.0,STARLINK-5056,PAYLOAD,2023-08-15 15:43:54,15.08853453,0.0001251,53.2156,200.6887,84.3281,275.7853,0.00026737,3.971e-05,0.0,0 STARLINK-5056,1 53910U 22119AA  23227.65549157  .00003971  00000-0  26737-3 0  9999,2 53910  53.2156 200.6887 0001251  84.3281 275.7853 15.08853453 49943,6917.839,95.437,540.57,538.839,0.0
53910.0,STARLINK-5056,PAYLOAD,2023-08-16 15:34:41,15.08845923,0.000146,53.2156,196.2288,93.7413,266.3746,6.895e-05,8.1e-06,0.0,0 STARLINK-5056,1 53910U 22119AA  23228.64909092  .00000810  00000-0  68950-4 0  9990,2 53910  53.2156 196.2288 0001460  93.7413 266.3746 15.08845923 50099,6917.862,95.437,540.737,538.717,0.0
53910.0,STARLINK-5056,PAYLOAD,2023-08-17 07:28:32,15.08858575,0.0001561,53.2162,193.2539,103.7042,256.4124,0.00030997,4.651e-05,0.0,0 STARLINK-5056,1 53910U 22119AA  23229.31148291  .00004651  00000-0  30997-3 0  9997,2 53910  53.2162 193.2539 0001561 103.7042 256.4124 15.08858575 50192,6917.824,95.436,540.768,538.609,0.0
53910.0,STARLINK-5056,PAYLOAD,2023-08-18 02:33:11,15.0882428,0.0001341,53.2167,189.6863,88.6135,271.5011,-3.1626e-05,-7.91e-06,0.0,0 STARLINK-5056,1 53910U 22119AA  23230.10637854 -.00000791  00000-0 -31626-4 0  9998,2 53910  53.2167 189.6863 0001341  88.6135 271.5011 15.08824280 50319,6917.928,95.439,540.721,538.866,0.0
53910.0,STARLINK-5056,PAYLOAD,2023-08-19 00:48:35,15.08836344,0.0001548,53.2169,185.5255,93.9517,266.1652,0.00035049,5.294e-05,0.0,0 STARLINK-5056,1 53910U 22119AA  23231.03374532  .00005294  00000-0  35049-3 0  9995,2 53910  53.2169 185.5255 0001548  93.9517 266.1652 15.08836344 50453,6917.892,95.438,540.827,538.686,0.0
53910.0,STARLINK-5056,PAYLOAD,2023-08-20 02:14:46,15.08832132,0.0001475,53.2157,180.7661,89.3563,270.7599,0.00019744,2.855e-05,0.0,0 STARLINK-5056,1 53910U 22119AA  23232.09359257  .00002855  00000-0  19744-3 0  9993,2 53910  53.2157 180.7661 0001475  89.3563 270.7599 15.08832132 50617,6917.904,95.438,540.79,538.749,0.0
53910.0,STARLINK-5056,PAYLOAD,2023-08-20 07:00:55,15.08844815,0.0001498,53.2168,179.8758,91.5652,268.5512,0.000408,6.212e-05,0.0,0 STARLINK-5056,1 53910U 22119AA  23232.29230981  .00006212  00000-0  40800-3 0  9995,2 53910  53.2168 179.8758 0001498  91.5652 268.5512 15.08844815 50648,6917.866,95.437,540.767,538.694,0.0
53910.0,STARLINK-5056,PAYLOAD,2023-08-21 02:05:33,15.08846674,0.0001473,53.2169,176.3076,90.1527,269.9634,0.0003525,5.328e-05,0.0,0 STARLINK-5056,1 53910U 22119AA  23233.08718883  .00005328  00000-0  35250-3 0  9995,2 53910  53.2169 176.3076 0001473  90.1527 269.9634 15.08846674 50761,6917.86,95.437,540.744,538.706,0.0
53910.0,STARLINK-5056,PAYLOAD,2023-08-22 01:56:20,15.08830513,0.0001648,53.2176,171.8465,90.7313,269.3868,0.00041778,6.366e-05,0.0,0 STARLINK-5056,1 53910U 22119AA  23234.08079595  .00006366  00000-0  41778-3 0  9991,2 53910  53.2176 171.8465 0001648  90.7313 269.3868 15.08830513 50919,6917.909,95.438,540.914,538.634,0.0
53910.0,STARLINK-5056,PAYLOAD,2023-08-22 05:07:06,15.0884329,0.0001485,53.2172,171.2518,100.0394,260.0766,7.8261e-05,9.58e-06,0.0,0 STARLINK-5056,1 53910U 22119AA  23234.21326864  .00000958  00000-0  78261-4 0  9999,2 53910  53.2172 171.2518 0001485 100.0394 260.0766 15.08843290 50934,6917.87,95.437,540.763,538.708,0.0
53910.0,STARLINK-5056,PAYLOAD,2023-08-24 01:37:54,15.08839605,0.0001502,53.2181,162.927,88.4542,271.6622,6.4265e-05,7.35e-06,0.0,0 STARLINK-5056,1 53910U 22119AA  23236.06799495  .00000735  00000-0  64265-4 0  9990,2 53910  53.2181 162.9270 0001502  88.4542 271.6622 15.08839605 51632,6917.882,95.438,540.786,538.708,0.0
53910.0,STARLINK-5056,PAYLOAD,2023-08-25 01:28:41,15.08850184,0.0001481,53.2171,158.4654,95.9092,264.2069,0.00017724,2.535e-05,0.0,0 STARLINK-5056,1 53910U 22119AA  23237.06158881  .00002535  00000-0  17724-3 0  9996,2 53910  53.2171 158.4654 0001481  95.9092 264.2069 15.08850184 51364,6917.849,95.437,540.739,538.69,0.0
53910.0,STARLINK-5056,PAYLOAD,2023-08-25 04:39:27,15.08853353,0.0001456,53.2169,157.8684,101.2354,258.8801,0.00019397,2.802e-05,0.0,0 STARLINK-5056,1 53910U 22119AA  23237.19406615  .00002802  00000-0  19397-3 0  9996,2 53910  53.2169 157.8684 0001456 101.2354 258.8801 15.08853353 51804,6917.84,95.437,540.712,538.697,0.0
53910.0,STARLINK-5056,PAYLOAD,2023-08-25 23:44:05,15.08841647,0.0001384,53.2171,154.2977,105.7244,254.3901,5.5514e-05,5.96e-06,0.0,0 STARLINK-5056,1 53910U 22119AA  23237.98895088  .00000596  00000-0  55514-4 0  9999,2 53910  53.2171 154.2977 0001384 105.7244 254.3901 15.08841647 51502,6917.875,95.437,540.698,538.783,0.0
53910.0,STARLINK-5056,PAYLOAD,2023-08-26 04:30:14,15.08845059,0.0001315,53.2177,153.4094,92.6296,267.4847,0.000117,1.575e-05,0.0,0 STARLINK-5056,1 53910U 22119AA  23238.18766982  .00001575  00000-0  11700-3 0  9998,2 53910  53.2177 153.4094 0001315  92.6296 267.4847 15.08845059 51958,6917.865,95.437,540.64,538.82,0.0
53910.0,STARLINK-5056,PAYLOAD,2023-08-27 02:45:38,15.08845408,0.0001409,53.2185,149.2459,91.0221,269.0933,4.9418e-05,4.99e-06,0.0,0 STARLINK-5056,1 53910U 22119AA  23239.11502892  .00000499  00000-0  49418-4 0  9992,2 53910  53.2185 149.2459 0001409  91.0221 269.0933 15.08845408 51671,6917.864,95.437,540.704,538.754,0.0
53910.0,STARLINK-5056,PAYLOAD,2023-08-28 02:36:26,15.08836127,0.0001284,53.2187,144.7874,100.7573,259.3563,4.9318e-05,4.97e-06,0.0,0 STARLINK-5056,1 53910U 22119AA  23240.10863806  .00000497  00000-0  49318-4 0  9995,2 53910  53.2187 144.7874 0001284 100.7573 259.3563 15.08836127 51829,6917.892,95.438,540.645,538.869,0.0
53910.0,STARLINK-5056,PAYLOAD,2023-08-28 10:33:22,15.08835522,0.0001222,53.2188,143.2988,83.5463,276.5668,1.2718e-05,-8.5e-07,0.0,0 STARLINK-5056,1 53910U 22119AA  23240.43983983 -.00000085  00000-0  12718-4 0  9998,2 53910  53.2188 143.2988 0001222  83.5463 276.5668 15.08835522 52295,6917.894,95.438,540.604,538.914,0.0
53910.0,STARLINK-5056,PAYLOAD,2023-08-29 10:24:08,15.0884301,0.0001292,53.2188,138.8378,84.8799,275.2341,6.9395e-05,8.17e-06,0.0,0 STARLINK-5056,1 53910U 22119AA  23241.43343683  .00000817  00000-0  69395-4 0  9991,2 53910  53.2188 138.8378 0001292  84.8799 275.2341 15.08843010 52027,6917.871,95.437,540.63,538.842,0.0
53910.0,STARLINK-5056,PAYLOAD,2023-08-30 00:42:37,15.08836483,0.0001317,53.2187,136.1617,81.6525,278.4617,9.4144e-05,1.211e-05,0.0,0 STARLINK-5056,1 53910U 22119AA  23242.02960260  .00001211  00000-0  94144-4 0  9992,2 53910  53.2187 136.1617 0001317  81.6525 278.4617 15.08836483 52110,6917.891,95.438,540.667,538.845,0.0
53910.0,STARLINK-5056,PAYLOAD,2023-08-30 10:14:56,15.08843599,0.0001096,53.2181,134.3808,84.1365,275.9752,7.8253e-05,9.58e-06,0.0,0 STARLINK-5056,1 53910U 22119AA  23242.42703819  .00000958  00000-0  78253-4 0  9991,2 53910  53.2181 134.3808 0001096  84.1365 275.9752 15.08843599 52590,6917.869,95.437,540.493,538.976,0.0
53910.0,STARLINK-5056,PAYLOAD,2023-08-31 00:33:24,15.0884857,0.0001137,53.2169,131.7047,93.2924,266.8199,8.6925e-05,1.096e-05,0.0,0 STARLINK-5056,1 53910U 22119AA  23243.02319504  .00001096  00000-0  86925-4 0  9991,2 53910  53.2169 131.7047 0001137  93.2924 266.8199 15.08848570 52262,6917.854,95.437,540.506,538.933,0.0
53910.0,STARLINK-5056,PAYLOAD,2023-08-31 16:27:15,15.08839071,0.0001284,53.2175,128.7308,80.9312,279.1825,7.4294e-05,8.95e-06,0.0,0 STARLINK-5056,1 53910U 22119AA  23243.68560148  .00000895  00000-0  74294-4 0  9997,2 53910  53.2175 128.7308 0001284  80.9312 279.1825 15.08839071 52362,6917.883,95.438,540.636,538.86,0.0
53910.0,STARLINK-5056,PAYLOAD,2023-09-01 09:56:29,15.08856563,0.000131,53.2166,125.461,72.6297,287.4838,-0.00012228,-2.234e-05,0.0,0 STARLINK-5056,1 53910U 22119AA  23244.41423314 -.00002234  00000-0 -12228-3 0  9991,2 53910  53.2166 125.4610 0001310  72.6297 287.4838 15.08856563 52475,6917.83,95.437,540.601,538.789,0.0
53910.0,STARLINK-5056,PAYLOAD,2023-09-01 16:18:02,15.08828813,5.21e-05,53.2178,124.2718,288.574,71.5196,0.00019167,2.763e-05,0.0,0 STARLINK-5056,1 53910U 22119AA  23244.67919896  .00002763  00000-0  19167-3 0  9998,2 53910  53.2178 124.2718 0000521 288.5740  71.5196 15.08828813 52519,6917.915,95.438,540.14,539.419,0.0
53910.0,STARLINK-5056,PAYLOAD,2023-09-01 19:28:48,15.08844306,3.15e-05,53.2163,123.677,17.7875,342.3128,9.1195e-05,1.164e-05,0.0,0 STARLINK-5056,1 53910U 22119AA  23244.81167301  .00001164  00000-0  91195-4 0  9996,2 53910  53.2163 123.6770 0000315  17.7875 342.3128 15.08844306 52953,6917.867,95.437,539.95,539.514,0.0
53910.0,STARLINK-5056,PAYLOAD,2023-09-01 22:39:36,15.08818794,6.48e-05,53.2174,123.0814,286.2239,73.8682,-0.00013455,-2.427e-05,0.0,0 STARLINK-5056,1 53910U 22119AA  23244.94417088 -.00002427  00000-0 -13455-3 0  9997,2 53910  53.2174 123.0814 0000648 286.2239  73.8682 15.08818794 52553,6917.945,95.439,540.258,539.362,0.0
